STARLINK-31782          
1 59606U 24080F   26068.00697171  .00000535  00000+0  28975-4 0  9990
2 59606  43.0026  45.6133 0001265 267.9937  92.0770 15.27579787104381
LIME                    
1 62648U 25009AR  26068.73906781  .00013254  00000+0  47723-3 0  9995
2 62648  97.3985 151.4831 0001635  35.9029 324.2320 15.28703313 63766
